NORAD_CAT_ID,OBJECT_NAME,OBJECT_TYPE,EPOCH,MEAN_MOTION,ECCENTRICITY,INCLINATION,RA_OF_ASC_NODE,ARG_OF_PERICENTER,MEAN_ANOMALY,BSTAR,MEAN_MOTION_DOT,MEAN_MOTION_DDOT,TLE_LINE0,TLE_LINE1,TLE_LINE2,SEMIMAJOR_AXIS,PERIOD,APOGEE,PERIGEE,DECAYED
53600.0,STARLINK-4677,PAYLOAD,2024-05-08 23:13:02,15.08847718,0.0001068,53.2178,11.025,75.5634,284.5476,0.00028493,4.251e-05,0.0,0 STARLINK-4677,1 53600U 22104N   24129.96739053  .00004251  00000-0  28493-3 0  9994,2 53600  53.2178  11.0250 0001068  75.5634 284.5476 15.08847718 94228,6917.857,95.437,540.461,538.983,0.0
53600.0,STARLINK-4677,PAYLOAD,2024-05-09 19:53:03,15.08850454,0.0001104,53.2171,7.1623,91.5385,268.5734,0.00040639,6.188e-05,0.0,0 STARLINK-4677,1 53600U 22104N   24130.82851112  .00006188  00000-0  40639-3 0  9999,2 53600  53.2171   7.1623 0001104  91.5385 268.5734 15.08850454 94357,6917.848,95.437,540.477,538.95,0.0
53600.0,STARLINK-4677,PAYLOAD,2024-05-09 21:28:26,15.0885073,0.0001125,53.2175,6.8651,92.9924,267.1197,0.00038495,5.846e-05,0.0,0 STARLINK-4677,1 53600U 22104N   24130.89475064  .00005846  00000-0  38495-3 0  9991,2 53600  53.2175   6.8651 0001125  92.9924 267.1197 15.08850730 94642,6917.848,95.437,540.491,538.934,0.0
53600.0,STARLINK-4677,PAYLOAD,2024-05-10 00:39:12,15.08860442,0.000113,53.2184,6.2696,92.3749,267.7373,0.00062047,9.606e-05,0.0,0 STARLINK-4677,1 53600U 22104N   24131.02722720  .00009606  00000-0  62047-3 0  9999,2 53600  53.2184   6.2696 0001130  92.3749 267.7373 15.08860442 94384,6917.818,95.436,540.465,538.901,0.0
53600.0,STARLINK-4677,PAYLOAD,2024-05-10 21:19:13,15.08852842,0.0001209,53.2175,2.4061,99.9428,260.1701,0.00046122,7.063e-05,0.0,0 STARLINK-4677,1 53600U 22104N   24131.88834851  .00007063  00000-0  46122-3 0  9993,2 53600  53.2175   2.4061 0001209  99.9428 260.1701 15.08852842 94514,6917.841,95.437,540.543,538.87,0.0
53600.0,STARLINK-4677,PAYLOAD,2024-05-11 08:26:53,15.08922937,9.81e-05,53.2168,0.32,72.3289,287.7811,0.0033647,0.00053792,0.0,0 STARLINK-4677,1 53600U 22104N   24132.35201278  .00053792  00000-0  33647-2 0  9994,2 53600  53.2168   0.3200 0000981  72.3289 287.7811 15.08922937 94581,6917.627,95.432,540.171,538.813,0.0
53600.0,STARLINK-4677,PAYLOAD,2024-05-11 21:10:00,15.08782368,0.0001227,53.2174,357.9398,62.6092,297.5025,-0.003582,-0.00056756,0.0,0 STARLINK-4677,1 53600U 22104N   24132.88194610 -.00056756  00000-0 -35820-2 0  9993,2 53600  53.2174 357.9398 0001227  62.6092 297.5025 15.08782368 94662,6918.057,95.441,540.77,539.073,0.0
53600.0,STARLINK-4677,PAYLOAD,2024-05-11 22:45:23,15.08767846,0.0001151,53.2169,357.6429,59.5825,300.5281,-0.0034922,-0.0005533,0.0,0 STARLINK-4677,1 53600U 22104N   24132.94819067 -.00055330  00000-0 -34922-2 0  9999,2 53600  53.2169 357.6429 0001151  59.5825 300.5281 15.08767846 94958,6918.101,95.442,540.762,539.17,0.0
53600.0,STARLINK-4677,PAYLOAD,2024-05-12 08:17:45,15.08719849,0.0001465,53.2172,355.8622,64.6509,295.4634,0.00076993,0.00011947,0.0,0 STARLINK-4677,1 53600U 22104N   24133.34566958  .00011947  00000-0  76993-3 0  9991,2 53600  53.2172 355.8622 0001465  64.6509 295.4634 15.08719849 95013,6918.248,95.445,541.126,539.099,0.0
53600.0,STARLINK-4677,PAYLOAD,2024-05-12 21:00:52,15.08808854,7.05e-05,53.2178,353.4789,79.1007,281.0065,0.0021488,0.00034046,0.0,0 STARLINK-4677,1 53600U 22104N   24133.87560288  .00034046  00000-0  21488-2 0  9992,2 53600  53.2178 353.4789 0000705  79.1007 281.0065 15.08808854 94818,6917.976,95.44,540.328,539.353,0.0
53600.0,STARLINK-4677,PAYLOAD,2024-05-13 08:08:33,15.08859849,0.0001423,53.2172,351.3968,93.9958,266.1197,0.0019176,0.00030379,0.0,0 STARLINK-4677,1 53600U 22104N   24134.33927877  .00030379  00000-0  19176-2 0  9991,2 53600  53.2172 351.3968 0001423  93.9958 266.1197 15.08859849 95164,6917.82,95.436,540.669,538.7,0.0
53600.0,STARLINK-4677,PAYLOAD,2024-05-13 20:51:38,15.08875101,0.0001501,53.2178,349.0183,93.1952,266.9211,0.0012559,0.00019775,0.0,0 STARLINK-4677,1 53600U 22104N   24134.86918986  .00019775  00000-0  12559-2 0  9995,2 53600  53.2178 349.0183 0001501  93.1952 266.9211 15.08875101 95249,6917.773,95.435,540.676,538.6,0.0
53600.0,STARLINK-4677,PAYLOAD,2024-05-14 20:42:22,15.08899992,0.0001395,53.2171,344.5573,87.9933,272.1219,0.0011075,0.00017411,0.0,0 STARLINK-4677,1 53600U 22104N   24135.86275989  .00017411  00000-0  11075-2 0  9992,2 53600  53.2171 344.5573 0001395  87.9933 272.1219 15.08899992 95113,6917.697,95.434,540.527,538.597,0.0
53600.0,STARLINK-4677,PAYLOAD,2024-05-15 14:11:36,15.08854625,0.0002956,53.2148,341.2833,91.1006,269.0325,0.00062871,9.736e-05,0.0,0 STARLINK-4677,1 53600U 22104N   24136.59139536  .00009736  00000-0  62871-3 0  9992,2 53600  53.2148 341.2833 0002956  91.1006 269.0325 15.08854625 95502,6917.836,95.437,541.746,537.656,0.0
53600.0,STARLINK-4677,PAYLOAD,2024-05-15 18:57:45,15.08855126,0.0001277,53.2201,340.3952,94.4638,265.65,-0.00022966,-3.943e-05,0.0,0 STARLINK-4677,1 53600U 22104N   24136.79011339 -.00003943  00000-0 -22966-3 0  9991,2 53600  53.2201 340.3952 0001277  94.4638 265.6500 15.08855126 95252,6917.834,95.437,540.583,538.816,0.0
53600.0,STARLINK-4677,PAYLOAD,2024-05-16 14:02:23,15.08847095,0.0001355,53.2185,336.8233,87.8124,272.3024,8.9985e-05,1.145e-05,0.0,0 STARLINK-4677,1 53600U 22104N   24137.58499387  .00001145  00000-0  89985-4 0  9997,2 53600  53.2185 336.8233 0001355  87.8124 272.3024 15.08847095 95654,6917.859,95.437,540.661,538.786,0.0
53600.0,STARLINK-4677,PAYLOAD,2024-05-16 20:23:55,15.08864901,0.0002993,53.22,335.6356,83.138,276.9952,0.00061596,9.535e-05,0.0,0 STARLINK-4677,1 53600U 22104N   24137.84995008  .00009535  00000-0  61596-3 0  9995,2 53600  53.2200 335.6356 0002993  83.1380 276.9952 15.08864901 95416,6917.804,95.436,541.74,537.599,0.0
53600.0,STARLINK-4677,PAYLOAD,2024-05-17 21:50:07,15.08828003,0.0002179,53.217,330.8762,63.1505,296.971,-2.4421e-05,-6.77e-06,0.0,0 STARLINK-4677,1 53600U 22104N   24138.90980789 -.00000677  00000-0 -24421-4 0  9990,2 53600  53.2170 330.8762 0002179  63.1505 296.9710 15.08828003 95858,6917.917,95.438,541.289,538.275,0.0
53600.0,STARLINK-4677,PAYLOAD,2024-05-17 23:25:30,15.08822408,0.0002585,53.2171,330.5793,72.1097,288.0177,-5.9361e-05,-1.233e-05,0.0,0 STARLINK-4677,1 53600U 22104N   24138.97605059 -.00001233  00000-0 -59361-4 0  9991,2 53600  53.2171 330.5793 0002585  72.1097 288.0177 15.08822408 95589,6917.934,95.439,541.587,538.011,0.0
53600.0,STARLINK-4677,PAYLOAD,2024-05-18 12:08:35,15.08849068,9.67e-05,53.2189,328.2022,103.809,256.3009,0.00055905,8.623e-05,0.0,0 STARLINK-4677,1 53600U 22104N   24139.50596195  .00008623  00000-0  55905-3 0  9998,2 53600  53.2189 328.2022 0000967 103.8090 256.3009 15.08849068 95666,6917.853,95.437,540.387,539.049,0.0
53600.0,STARLINK-4677,PAYLOAD,2024-05-18 20:05:29,15.08875248,3.21e-05,53.2163,326.7135,82.3023,277.8006,0.0020581,0.0003265,0.0,0 STARLINK-4677,1 53600U 22104N   24139.83714789  .00032650  00000-0  20581-2 0  9993,2 53600  53.2163 326.7135 0000321  82.3023 277.8006 15.08875248 95717,6917.773,95.435,539.86,539.416,0.0
53600.0,STARLINK-4677,PAYLOAD,2024-05-18 21:40:52,15.08878468,5.74e-05,53.2163,326.4162,104.2505,255.8551,0.0020984,0.00033301,0.0,0 STARLINK-4677,1 53600U 22104N   24139.90338668  .00033301  00000-0  20984-2 0  9990,2 53600  53.2163 326.4162 0000574 104.2505 255.8551 15.08878468 96004,6917.763,95.435,540.025,539.231,0.0
53600.0,STARLINK-4677,PAYLOAD,2024-05-19 19:56:18,15.08833482,0.0001294,53.2167,322.2556,70.6848,289.4284,0.00047133,7.22e-05,0.0,0 STARLINK-4677,1 53600U 22104N   24140.83076560  .00007220  00000-0  47133-3 0  9991,2 53600  53.2167 322.2556 0001294  70.6848 289.4284 15.08833482 95861,6917.9,95.438,540.66,538.87,0.0
53600.0,STARLINK-4677,PAYLOAD,2024-05-19 21:31:41,15.08823531,0.000129,53.2166,321.9584,63.2062,296.9062,0.0019537,0.00030928,0.0,0 STARLINK-4677,1 53600U 22104N   24140.89700970  .00030928  00000-0  19537-2 0  9993,2 53600  53.2166 321.9584 0001290  63.2062 296.9062 15.08823531 96153,6917.931,95.439,540.688,538.903,0.0
53600.0,STARLINK-4677,PAYLOAD,2024-05-20 18:11:42,15.08870079,0.0001351,53.2167,318.0921,60.8152,299.2975,0.0018768,0.00029732,0.0,0 STARLINK-4677,1 53600U 22104N   24141.75812612  .00029732  00000-0  18768-2 0  9992,2 53600  53.2167 318.0921 0001351  60.8152 299.2975 15.08870079 96009,6917.788,95.436,540.588,538.719,0.0
53600.0,STARLINK-4677,PAYLOAD,2024-05-21 14:51:42,15.08846349,0.0001053,53.2174,314.2256,53.7894,306.3195,0.0011131,0.00017474,0.0,0 STARLINK-4677,1 53600U 22104N   24142.61924596  .00017474  00000-0  11131-2 0  9990,2 53600  53.2174 314.2256 0001053  53.7894 306.3195 15.08846349 96411,6917.861,95.437,540.454,538.998,0.0
53600.0,STARLINK-4677,PAYLOAD,2024-05-21 18:02:29,15.08847434,0.0001068,53.2173,313.6309,59.1632,300.9465,0.0013203,0.00020791,0.0,0 STARLINK-4677,1 53600U 22104N   24142.75172551  .00020791  00000-0  13203-2 0  9999,2 53600  53.2173 313.6309 0001068  59.1632 300.9465 15.08847434 96155,6917.858,95.437,540.461,538.984,0.0
53600.0,STARLINK-4677,PAYLOAD,2024-05-22 21:04:02,15.08853322,0.0001205,53.2179,308.5771,114.2036,245.9082,0.00085411,0.00013336,0.0,0 STARLINK-4677,1 53600U 22104N   24143.87780435  .00013336  00000-0  85411-3 0  9997,2 53600  53.2179 308.5771 0001205 114.2036 245.9082 15.08853322 96326,6917.84,95.437,540.538,538.871,0.0
53600.0,STARLINK-4677,PAYLOAD,2024-05-23 11:22:31,15.08855295,0.0003603,53.2181,305.8963,85.7577,274.3827,0.00057989,8.957e-05,0.0,0 STARLINK-4677,1 53600U 22104N   24144.47397129  .00008957  00000-0  57989-3 0  9990,2 53600  53.2181 305.8963 0003603  85.7577 274.3827 15.08855295 96412,6917.834,95.437,542.191,537.206,0.0
53600.0,STARLINK-4677,PAYLOAD,2024-05-23 14:33:17,15.08839525,0.0001225,53.2177,305.2994,79.5412,280.5719,0.0002103,3.061e-05,0.0,0 STARLINK-4677,1 53600U 22104N   24144.60644934  .00003061  00000-0  21030-3 0  9993,2 53600  53.2177 305.2994 0001225  79.5412 280.5719 15.08839525 96712,6917.882,95.438,540.594,538.899,0.0
